{
  "type": "FeatureCollection",
  "features": [
    {
      "type": "Feature",
      "properties": {
        "norad_id": 19071,
        "name": "OSCAR 32",
        "group": "nnss",
        "lat": 62.99865487162729,
        "lon": 16.256509950925796,
        "alt_km": 1100.6218350930403,
        "timestamp": "2025-12-24T09:46:31.272742+00:00",
        "meta_object_name": "OSCAR 32",
        "meta_object_id": "1988-033B",
        "meta_epoch": "2025-12-24T02:33:27.271296",
        "meta_mean_motion": 13.27955636,
        "meta_eccentricity": 0.0189182,
        "meta_inclination": 90.3208,
        "meta_ra_of_asc_node": 16.8771,
        "meta_arg_of_pericenter": 135.3137,
        "meta_mean_anomaly": 292.8833,
        "meta_ephemeris_type": 0,
        "meta_classification_type": "U",
        "meta_norad_cat_id": 19071,
        "meta_element_set_no": 999,
        "meta_rev_at_epoch": 82416,
        "meta_bstar": 8.5632e-05,
        "meta_mean_motion_dot": 5.2e-07,
        "meta_mean_motion_ddot": 0,
        "tle_line1": "1 19071U 88033B   25358.10656564  .00000052  00000+0  85632-4 0  9990",
        "tle_line2": "2 19071  90.3208  16.8771 0189182 135.3137 292.8833 13.27955636824167"
      },
      "geometry": {
        "type": "Point",
        "coordinates": [
          16.256509950925796,
          62.99865487162729
        ]
      }
    },
    {
      "type": "Feature",
      "properties": {
        "norad_id": 19223,
        "name": "NOVA 2",
        "group": "nnss",
        "lat": 52.0831552688537,
        "lon": 78.27527448921965,
        "alt_km": 1160.1277006535183,
        "timestamp": "2025-12-24T09:46:31.272752+00:00",
        "meta_object_name": "NOVA 2",
        "meta_object_id": "1988-052A",
        "meta_epoch": "2025-12-24T04:21:39.408768",
        "meta_mean_motion": 13.22937071,
        "meta_eccentricity": 0.0029605,
        "meta_inclination": 89.9864,
        "meta_ra_of_asc_node": 78.2581,
        "meta_arg_of_pericenter": 345.217,
        "meta_mean_anomaly": 72.8014,
        "meta_ephemeris_type": 0,
        "meta_classification_type": "U",
        "meta_norad_cat_id": 19223,
        "meta_element_set_no": 999,
        "meta_rev_at_epoch": 81099,
        "meta_bstar": 0.00018842,
        "meta_mean_motion_dot": 8.8e-07,
        "meta_mean_motion_ddot": 0,
        "tle_line1": "1 19223U 88052A   25358.18170612  .00000088  00000+0  18842-3 0  9990",
        "tle_line2": "2 19223  89.9864  78.2581 0029605 345.2170  72.8014 13.22937071810992"
      },
      "geometry": {
        "type": "Point",
        "coordinates": [
          78.27527448921965,
          52.0831552688537
        ]
      }
    },
    {
      "type": "Feature",
      "properties": {
        "norad_id": 19419,
        "name": "OSCAR 25",
        "group": "nnss",
        "lat": -54.33355423865646,
        "lon": -159.76488373531328,
        "alt_km": 1040.603329163555,
        "timestamp": "2025-12-24T09:46:31.272763+00:00",
        "meta_object_name": "OSCAR 25",
        "meta_object_id": "1988-074A",
        "meta_epoch": "2025-12-24T03:35:44.715840",
        "meta_mean_motion": 13.4262537,
        "meta_eccentricity": 0.009513,
        "meta_inclination": 90.0336,
        "meta_ra_of_asc_node": 20.2811,
        "meta_arg_of_pericenter": 212.8485,
        "meta_mean_anomaly": 217.2062,
        "meta_ephemeris_type": 0,
        "meta_classification_type": "U",
        "meta_norad_cat_id": 19419,
        "meta_element_set_no": 999,
        "meta_rev_at_epoch": 82793,
        "meta_bstar": 0.0001305,
        "meta_mean_motion_dot": 8.5e-07,
        "meta_mean_motion_ddot": 0,
        "tle_line1": "1 19419U 88074A   25358.14982310  .00000085  00000+0  13050-3 0  9996",
        "tle_line2": "2 19419  90.0336  20.2811 0095130 212.8485 217.2062 13.42625370827931"
      },
      "geometry": {
        "type": "Point",
        "coordinates": [
          -159.76488373531328,
          -54.33355423865646
        ]
      }
    },
    {
      "type": "Feature",
      "properties": {
        "norad_id": 19420,
        "name": "OSCAR 31",
        "group": "nnss",
        "lat": 65.03163211203976,
        "lon": -159.29013944978252,
        "alt_km": 1094.3842701554458,
        "timestamp": "2025-12-24T09:46:31.272773+00:00",
        "meta_object_name": "OSCAR 31",
        "meta_object_id": "1988-074B",
        "meta_epoch": "2025-12-24T02:20:50.517024",
        "meta_mean_motion": 13.42586465,
        "meta_eccentricity": 0.0093513,
        "meta_inclination": 90.0354,
        "meta_ra_of_asc_node": 20.6327,
        "meta_arg_of_pericenter": 207.1456,
        "meta_mean_anomaly": 213.8261,
        "meta_ephemeris_type": 0,
        "meta_classification_type": "U",
        "meta_norad_cat_id": 19420,
        "meta_element_set_no": 999,
        "meta_rev_at_epoch": 82803,
        "meta_bstar": 0.00011,
        "meta_mean_motion_dot": 7.3e-07,
        "meta_mean_motion_ddot": 0,
        "tle_line1": "1 19420U 88074B   25358.09780691  .00000073  00000+0  11000-3 0  9990",
        "tle_line2": "2 19420  90.0354  20.6327 0093513 207.1456 213.8261 13.42586465828033"
      },
      "geometry": {
        "type": "Point",
        "coordinates": [
          -159.29013944978252,
          65.03163211203976
        ]
      }
    }
  ]
}